$$SOE
2461295.500000000, A.D. 2026-Sep-12 00:00:00.0000, 2.840382652905842E+08, -2.847354120930043E+08, -7.307805814022139E+06,
2461302.500000000, A.D. 2026-Sep-19 00:00:00.0000, 2.910169420068210E+08, -2.752672162171237E+08, -7.221033294813827E+06,
2461309.500000000, A.D. 2026-Sep-26 00:00:00.0000, 2.977759602411342E+08, -2.655912844149347E+08, -7.128810342376828E+06,
2461316.500000000, A.D. 2026-Oct-03 00:00:00.0000, 3.043075564268658E+08, -2.557125488160312E+08, -7.031142806106761E+06,
2461323.500000000, A.D. 2026-Oct-10 00:00:00.0000, 3.106040493488839E+08, -2.456362940777659E+08, -6.928043042258084E+06,
2461330.500000000, A.D. 2026-Oct-17 00:00:00.0000, 3.166578593349645E+08, -2.353681602564545E+08, -6.819530139447883E+06,
2461337.500000000, A.D. 2026-Oct-24 00:00:00.0000, 3.224615281132267E+08, -2.249141446163698E+08, -6.705630139456853E+06,
2461344.500000000, A.D. 2026-Oct-31 00:00:00.0000, 3.280077393592590E+08, -2.142806023566995E+08, -6.586376265608147E+06,
2461351.500000000, A.D. 2026-Nov-07 00:00:00.0000, 3.332893401860269E+08, -2.034742460972772E+08, -6.461809181543082E+06,
2461358.500000000, A.D. 2026-Nov-14 00:00:00.0000, 3.382993636836197E+08, -1.925021431556696E+08, -6.331977223825350E+06,
2461365.500000000, A.D. 2026-Nov-21 00:00:00.0000, 3.430310505945206E+08, -1.813717098634932E+08, -6.196936383837081E+06,
2461372.500000000, A.D. 2026-Nov-28 00:00:00.0000, 3.474778690104883E+08, -1.700907058684580E+08, -6.056750190897338E+06,
2461379.500000000, A.D. 2026-Dec-05 00:00:00.0000, 3.516335355828423E+08, -1.586672290230428E+08, -5.911489880113944E+06,
2461386.500000000, A.D. 2026-Dec-12 00:00:00.0000, 3.554920382770205E+08, -1.471097077036705E+08, -5.761234603661329E+06,
2461393.500000000, A.D. 2026-Dec-19 00:00:00.0000, 3.590476586439743E+08, -1.354268905228230E+08, -5.606071509698845E+06,
2461400.500000000, A.D. 2026-Dec-26 00:00:00.0000, 3.622949933187820E+08, -1.236278342850527E+08, -5.446095744863220E+06,
2461407.500000000, A.D. 2027-Jan-02 00:00:00.0000, 3.652289748693036E+08, -1.117218903751686E+08, -5.281410419552743E+06,
2461414.500000000, A.D. 2027-Jan-09 00:00:00.0000, 3.678448919549348E+08, -9.971868957125232E+07, -5.112126543659657E+06,
2461421.500000000, A.D. 2027-Jan-16 00:00:00.0000, 3.701384086719401E+08, -8.762812530292992E+07, -4.938362934131257E+06,
2461428.500000000, A.D. 2027-Jan-23 00:00:00.0000, 3.721055829723391E+08, -7.546033544108300E+07, -4.760246101027168E+06,
2461435.500000000, A.D. 2027-Jan-30 00:00:00.0000, 3.737428841858401E+08, -6.322568273092612E+07, -4.577910132894430E+06,
2461442.500000000, A.D. 2027-Feb-06 00:00:00.0000, 3.750472099134446E+08, -5.093473360833692E+07, -4.391496592796922E+06,
2461449.500000000, A.D. 2027-Feb-13 00:00:00.0000, 3.760159016850542E+08, -3.859823427404483E+07, -4.201154283279074E+06,
2461456.500000000, A.D. 2027-Feb-20 00:00:00.0000, 3.766467568843229E+08, -2.622708492994276E+07, -4.007038728389734E+06,
2461463.500000000, A.D. 2027-Feb-27 00:00:00.0000, 3.769380382116516E+08, -1.383231552362203E+07, -3.809311764639031E+06,
2461470.500000000, A.D. 2027-Mar-06 00:00:00.0000, 3.768884835859811E+08, -1.425061222419697E+06, -3.608141362349478E+06,
2461477.500000000, A.D. 2027-Mar-13 00:00:00.0000, 3.764973147847704E+08, 1.098346427779491E+07, -3.403701364914045E+06,
2461484.500000000, A.D. 2027-Mar-20 00:00:00.0000, 3.757642436110355E+08, 2.338199660759608E+07, -3.196171112586848E+06,
2461491.500000000, A.D. 2027-Mar-27 00:00:00.0000, 3.746894757253469E+08, 3.575924901712447E+07, -2.985735016540920E+06,
2461498.500000000, A.D. 2027-Apr-03 00:00:00.0000, 3.732737123000479E+08, 4.810394087593303E+07, -2.772582108333450E+06,
2461505.500000000, A.D. 2027-Apr-10 00:00:00.0000, 3.715181495309337E+08, 6.040482621439597E+07, -2.556905571359277E+06,
2461512.500000000, A.D. 2027-Apr-17 00:00:00.0000, 3.694244760230181E+08, 7.265072210207899E+07, -2.338902260507837E+06,
2461519.500000000, A.D. 2027-Apr-24 00:00:00.0000, 3.669948681453109E+08, 8.483053661080022E+07, -2.118772225548178E+06,
2461526.500000000, A.D. 2027-May-01 00:00:00.0000, 3.642319836904915E+08, 9.693329620174140E+07, -1.896718266886622E+06,
2461533.500000000, A.D. 2027-May-08 00:00:00.0000, 3.611389542001299E+08, 1.089481731005629E+08, -1.672945494441174E+06,
2461540.500000000, A.D. 2027-May-15 00:00:00.0000, 3.577193745293969E+08, 1.208645134402150E+08, -1.447660677736446E+06,
2461547.500000000, A.D. 2027-May-22 00:00:00.0000, 3.539772881839298E+08, 1.326718634169622E+08, -1.221071458536461E+06,
2461554.500000000, A.D. 2027-May-29 00:00:00.0000, 3.499171718970765E+08, 1.443599918328728E+08, -9.933858576173633E+05,
2461561.500000000, A.D. 2027-Jun-05 00:00:00.0000, 3.455439204494435E+08, 1.559189120103697E+08, -7.648119049044400E+05,
2461568.500000000, A.D. 2027-Jun-12 00:00:00.0000, 3.408628298515001E+08, 1.673389033837366E+08, -5.355571770127341E+05,
2461575.500000000, A.D. 2027-Jun-19 00:00:00.0000, 3.358795786997439E+08, 1.786105317251331E+08, -3.058282912431881E+05,
2461582.500000000, A.D. 2027-Jun-26 00:00:00.0000, 3.306002081394828E+08, 1.897246676557058E+08, -7.583040554027259E+04,
2461589.500000000, A.D. 2027-Jul-03 00:00:00.0000, 3.250311007302818E+08, 2.006725033796455E+08, 1.542332620285302E+05,
2461596.500000000, A.D. 2027-Jul-10 00:00:00.0000, 3.191789584206816E+08, 2.114455675952108E+08, 3.841618896663636E+05,
2461603.500000000, A.D. 2027-Jul-17 00:00:00.0000, 3.130507798391369E+08, 2.220357385049065E+08, 6.137574757510871E+05,
2461610.500000000, A.D. 2027-Jul-24 00:00:00.0000, 3.066538372261317E+08, 2.324352548400332E+08, 8.428252090481669E+05,
2461617.500000000, A.D. 2027-Jul-31 00:00:00.0000, 2.999956535843764E+08, 2.426367251300064E+08, 1.071173765131220E+06,
2461624.500000000, A.D. 2027-Aug-07 00:00:00.0000, 2.930839800053869E+08, 2.526331363770939E+08, 1.298615639954880E+06,
2461631.500000000, A.D. 2027-Aug-14 00:00:00.0000, 2.859267710196541E+08, 2.624178619089108E+08, 1.524967710073933E+06,
2461638.500000000, A.D. 2027-Aug-21 00:00:00.0000, 2.785321587349932E+08, 2.719846650913246E+08, 1.750051687764779E+06,
2461645.500000000, A.D. 2027-Aug-28 00:00:00.0000, 2.709084293370448E+08, 2.813277001607403E+08, 1.973694253980935E+06,
2461652.500000000, A.D. 2027-Sep-04 00:00:00.0000, 2.630640008980681E+08, 2.904415127409205E+08, 2.195727181355476E+06,
2461659.500000000, A.D. 2027-Sep-11 00:00:00.0000, 2.550074012143271E+08, 2.993210394582201E+08, 2.415987521164730E+06,
2461666.500000000, A.D. 2027-Sep-18 00:00:00.0000, 2.467472459114123E+08, 3.079616060897039E+08, 2.634317789100543E+06,
2461673.500000000, A.D. 2027-Sep-25 00:00:00.0000, 2.382922171413943E+08, 3.163589242577952E+08, 2.850566122848898E+06,
2461680.500000000, A.D. 2027-Oct-02 00:00:00.0000, 2.296510430300219E+08, 3.245090867954128E+08, 3.064586407349229E+06,
2461687.500000000, A.D. 2027-Oct-09 00:00:00.0000, 2.208324779676866E+08, 3.324085618772715E+08, 3.276238366006002E+06,
2461694.500000000, A.D. 2027-Oct-16 00:00:00.0000, 2.118452838668863E+08, 3.400541859651836E+08, 3.485387608470649E+06,
2461701.500000000, A.D. 2027-Oct-23 00:00:00.0000, 2.026982126945040E+08, 3.474431556659656E+08, 3.691905611773878E+06,
2461708.500000000, A.D. 2027-Oct-30 00:00:00.0000, 1.933999906922790E+08, 3.545730192168071E+08, 3.895669651448056E+06,
2461715.500000000, A.D. 2027-Nov-06 00:00:00.0000, 1.839593031508118E+08, 3.614416688265483E+08, 4.096562882551998E+06,
2461722.500000000, A.D. 2027-Nov-13 00:00:00.0000, 1.743847777662241E+08, 3.680473318921634E+08, 4.294474584515467E+06,
2461729.500000000, A.D. 2027-Nov-20 00:00:00.0000, 1.646849694873924E+08, 3.743885590039029E+08, 4.489300126978338E+06,
2461736.500000000, A.D. 2027-Nov-27 00:00:00.0000, 1.548683484744694E+08, 3.804642117984805E+08, 4.680940751811594E+06,
2461743.500000000, A.D. 2027-Dec-04 00:00:00.0000, 1.449432891375076E+08, 3.862734516592845E+08, 4.869303432857215E+06,
2461750.500000000, A.D. 2027-Dec-11 00:00:00.0000, 1.349180596876866E+08, 3.918157283813060E+08, 5.054300786668152E+06,
2461757.500000000, A.D. 2027-Dec-18 00:00:00.0000, 1.248008124536506E+08, 3.970907685404135E+08, 5.235850982896417E+06,
2461764.500000000, A.D. 2027-Dec-25 00:00:00.0000, 1.145995750879304E+08, 4.020985636392792E+08, 5.413877641751528E+06,
2461771.500000000, A.D. 2028-Jan-01 00:00:00.0000, 1.043222426741170E+08, 4.068393581140940E+08, 5.588309717457563E+06,
$$EOE